[
    {
        "Altitude(m)": 558271.1007093771,
        "Argument of Periapsis(deg)": 0.026491964442854003,
        "Eccentricity": 0.0,
        "Inclination(deg)": 53.0,
        "Latitude(deg)": 46.03058333207525,
        "Longitude(deg)": -137.20739304218282,
        "Mean Anomaly(deg)": 64.00277147031034,
        "RAAN(deg)": 274.96057347411204,
        "Satellite Name": "Starlink Shell 1 1211",
        "Satellite Number": 1211,
        "Semi-Major Axis(m)": 6931778.249405717,
        "Time(s)": 760
    },
    {
        "Altitude(m)": 558342.2202121133,
        "Argument of Periapsis(deg)": 0.02684054292236524,
        "Eccentricity": 0.0,
        "Inclination(deg)": 53.0,
        "Latitude(deg)": 46.343597588165636,
        "Longitude(deg)": -136.46569845697795,
        "Mean Anomaly(deg)": 64.62960267386703,
        "RAAN(deg)": 274.9600547040346,
        "Satellite Name": "Starlink Shell 1 1211",
        "Satellite Number": 1211,
        "Semi-Major Axis(m)": 6931778.249405717,
        "Time(s)": 770
    },
    {
        "Altitude(m)": 558412.2185293082,
        "Argument of Periapsis(deg)": 0.027189121401876473,
        "Eccentricity": 0.0,
        "Inclination(deg)": 53.0,
        "Latitude(deg)": 46.65117393905542,
        "Longitude(deg)": -135.71510234114905,
        "Mean Anomaly(deg)": 65.25643387742377,
        "RAAN(deg)": 274.9595359339571,
        "Satellite Name": "Starlink Shell 1 1211",
        "Satellite Number": 1211,
        "Semi-Major Axis(m)": 6931778.249405717,
        "Time(s)": 780
    },
    {
        "Altitude(m)": 558481.0523231123,
        "Argument of Periapsis(deg)": 0.02753769988138771,
        "Eccentricity": 0.0,
        "Inclination(deg)": 53.0,
        "Latitude(deg)": 46.95319284143503,
        "Longitude(deg)": -134.9555670616915,
        "Mean Anomaly(deg)": 65.88326508098051,
        "RAAN(deg)": 274.95901716387965,
        "Satellite Name": "Starlink Shell 1 1211",
        "Satellite Number": 1211,
        "Semi-Major Axis(m)": 6931778.249405717,
        "Time(s)": 790
    },
    {
        "Altitude(m)": 558548.6790520304,
        "Argument of Periapsis(deg)": 0.02788627836089895,
        "Eccentricity": 0.0,
        "Inclination(deg)": 53.0,
        "Latitude(deg)": 47.24953362459032,
        "Longitude(deg)": -134.18706430437717,
        "Mean Anomaly(deg)": 66.51009628453721,
        "RAAN(deg)": 274.95849839380213,
        "Satellite Name": "Starlink Shell 1 1211",
        "Satellite Number": 1211,
        "Semi-Major Axis(m)": 6931778.249405717,
        "Time(s)": 800
    },
    {
        "Altitude(m)": 558615.0569920414,
        "Argument of Periapsis(deg)": 0.02823485684041019,
        "Eccentricity": 0.0,
        "Inclination(deg)": 53.0,
        "Latitude(deg)": 47.54007460701761,
        "Longitude(deg)": -133.4095751214473,
        "Mean Anomaly(deg)": 67.13692748809392,
        "RAAN(deg)": 274.9579796237247,
        "Satellite Name": "Starlink Shell 1 1211",
        "Satellite Number": 1211,
        "Semi-Major Axis(m)": 6931778.249405717,
        "Time(s)": 810
    },
    {
        "Altitude(m)": 558680.1452572623,
        "Argument of Periapsis(deg)": 0.028583435319921423,
        "Eccentricity": 0.0,
        "Inclination(deg)": 53.0,
        "Latitude(deg)": 47.82469322359668,
        "Longitude(deg)": -132.62308998424467,
        "Mean Anomaly(deg)": 67.76375869165061,
        "RAAN(deg)": 274.9574608536472,
        "Satellite Name": "Starlink Shell 1 1211",
        "Satellite Number": 1211,
        "Semi-Major Axis(m)": 6931778.249405717,
        "Time(s)": 820
    },
    {
        "Altitude(m)": 558743.903820209,
        "Argument of Periapsis(deg)": 0.028932013799432665,
        "Eccentricity": 0.0,
        "Inclination(deg)": 53.0,
        "Latitude(deg)": 48.10326616357645,
        "Longitude(deg)": -131.82761035089285,
        "Mean Anomaly(deg)": 68.39058989520736,
        "RAAN(deg)": 274.95694208356974,
        "Satellite Name": "Starlink Shell 1 1211",
        "Satellite Number": 1211,
        "Semi-Major Axis(m)": 6931778.249405717,
        "Time(s)": 830
    },
    {
        "Altitude(m)": 558806.2935315979,
        "Argument of Periapsis(deg)": 0.029280592278943897,
        "Eccentricity": 0.0,
        "Inclination(deg)": 53.0,
        "Latitude(deg)": 48.375669519572064,
        "Longitude(deg)": -131.02314872021967,
        "Mean Anomaly(deg)": 69.01742109876409,
        "RAAN(deg)": 274.9564233134923,
        "Satellite Name": "Starlink Shell 1 1211",
        "Satellite Number": 1211,
        "Semi-Major Axis(m)": 6931778.249405717,
        "Time(s)": 840
    },
    {
        "Altitude(m)": 558867.276139702,
        "Argument of Periapsis(deg)": 0.029629170758455132,
        "Eccentricity": 0.0,
        "Inclination(deg)": 53.0,
        "Latitude(deg)": 48.64177894772458,
        "Longitude(deg)": -130.20972868143943,
        "Mean Anomaly(deg)": 69.64425230232074,
        "RAAN(deg)": 274.9559045434148,
        "Satellite Name": "Starlink Shell 1 1211",
        "Satellite Number": 1211,
        "Semi-Major Axis(m)": 6931778.249405717,
        "Time(s)": 850
    },
    {
        "Altitude(m)": 558926.8143092429,
        "Argument of Periapsis(deg)": 0.02997774923796637,
        "Eccentricity": 0.0,
        "Inclination(deg)": 53.0,
        "Latitude(deg)": 48.901469839108316,
        "Longitude(deg)": -129.38738663690893,
        "Mean Anomaly(deg)": 70.27108350587754,
        "RAAN(deg)": 274.9553857733373,
        "Satellite Name": "Starlink Shell 1 1211",
        "Satellite Number": 1211,
        "Semi-Major Axis(m)": 6931778.249405717,
        "Time(s)": 860
    },
    {
        "Altitude(m)": 558984.8716398118,
        "Argument of Periapsis(deg)": 0.030326327717477602,
        "Eccentricity": 0.0,
        "Inclination(deg)": 53.0,
        "Latitude(deg)": 49.15461750239254,
        "Longitude(deg)": -128.55617099160318,
        "Mean Anomaly(deg)": 70.89791470943419,
        "RAAN(deg)": 274.9548670032599,
        "Satellite Name": "Starlink Shell 1 1211",
        "Satellite Number": 1211,
        "Semi-Major Axis(m)": 6931778.249405717,
        "Time(s)": 870
    },
    {
        "Altitude(m)": 559041.4126838334,
        "Argument of Periapsis(deg)": 0.030674906196988847,
        "Eccentricity": 0.0,
        "Inclination(deg)": 53.0,
        "Latitude(deg)": 49.40109735770053,
        "Longitude(deg)": -127.71614384800176,
        "Mean Anomaly(deg)": 71.52474591299092,
        "RAAN(deg)": 274.9543482331824,
        "Satellite Name": "Starlink Shell 1 1211",
        "Satellite Number": 1211,
        "Semi-Major Axis(m)": 6931778.249405717,
        "Time(s)": 880
    },
    {
        "Altitude(m)": 559096.4029640121,
        "Argument of Periapsis(deg)": 0.031023484676500086,
        "Eccentricity": 0.0,
        "Inclination(deg)": 53.0,
        "Latitude(deg)": 49.64078514150658,
        "Longitude(deg)": -126.86738099950576,
        "Mean Anomaly(deg)": 72.15157711654767,
        "RAAN(deg)": 274.95382946310485,
        "Satellite Name": "Starlink Shell 1 1211",
        "Satellite Number": 1211,
        "Semi-Major Axis(m)": 6931778.249405717,
        "Time(s)": 890
    },
    {
        "Altitude(m)": 559149.8089903287,
        "Argument of Periapsis(deg)": 0.03137206315601132,
        "Eccentricity": 0.0,
        "Inclination(deg)": 53.0,
        "Latitude(deg)": 49.8735571223308,
        "Longitude(deg)": -126.00997189865865,
        "Mean Anomaly(deg)": 72.77840832010432,
        "RAAN(deg)": 274.95331069302745,
        "Satellite Name": "Starlink Shell 1 1211",
        "Satellite Number": 1211,
        "Semi-Major Axis(m)": 6931778.249405717,
        "Time(s)": 900
    },
    {
        "Altitude(m)": 559201.5982764995,
        "Argument of Periapsis(deg)": 0.03172064163552255,
        "Eccentricity": 0.0,
        "Inclination(deg)": 53.0,
        "Latitude(deg)": 50.099290326889246,
        "Longitude(deg)": -125.14402110815627,
        "Mean Anomaly(deg)": 73.40523952366107,
        "RAAN(deg)": 274.95279192295,
        "Satellite Name": "Starlink Shell 1 1211",
        "Satellite Number": 1211,
        "Semi-Major Axis(m)": 6931778.249405717,
        "Time(s)": 910
    },
    {
        "Altitude(m)": 559251.7393559547,
        "Argument of Periapsis(deg)": 0.0320692201150338,
        "Eccentricity": 0.0,
        "Inclination(deg)": 53.0,
        "Latitude(deg)": 50.31786277624636,
        "Longitude(deg)": -124.2696482038534,
        "Mean Anomaly(deg)": 74.03207072721777,
        "RAAN(deg)": 274.95227315287246,
        "Satellite Name": "Starlink Shell 1 1211",
        "Satellite Number": 1211,
        "Semi-Major Axis(m)": 6931778.249405717,
        "Time(s)": 920
    },
    {
        "Altitude(m)": 559300.2017973029,
        "Argument of Periapsis(deg)": 0.032417798594545036,
        "Eccentricity": 0.0,
        "Inclination(deg)": 53.0,
        "Latitude(deg)": 50.52915373141324,
        "Longitude(deg)": -123.38698763747762,
        "Mean Anomaly(deg)": 74.6589019307745,
        "RAAN(deg)": 274.95175438279506,
        "Satellite Name": "Starlink Shell 1 1211",
        "Satellite Number": 1211,
        "Semi-Major Axis(m)": 6931778.249405717,
        "Time(s)": 930
    },
    {
        "Altitude(m)": 559346.9562192633,
        "Argument of Periapsis(deg)": 0.03276637707405627,
        "Eccentricity": 0.0,
        "Inclination(deg)": 53.0,
        "Latitude(deg)": 50.73304394771894,
        "Longitude(deg)": -122.49619006669681,
        "Mean Anomaly(deg)": 75.28573313433121,
        "RAAN(deg)": 274.95123561271754,
        "Satellite Name": "Starlink Shell 1 1211",
        "Satellite Number": 1211,
        "Semi-Major Axis(m)": 6931778.249405717,
        "Time(s)": 940
    }
]